XRISM                   
1 57800U 23137A   24138.90513521  .00009335  00000+0  70937-3 0  9998
2 57800  31.0023 205.3299 0009665 266.8961  93.0569 15.00878110 38054
